[{"OBJECT_NAME":"LYNK TOWER 3","OBJECT_ID":"2023-001AP","EPOCH":"2026-03-09T16:30:02.373408","MEAN_MOTION":15.34026505,"ECCENTRICITY":0.00098594,"INCLINATION":97.3321,"RA_OF_ASC_NODE":129.5399,"ARG_OF_PERICENTER":112.8813,"MEAN_ANOMALY":247.3472,"EPHEMERIS_TYPE":0,"CLASSIFICATION_TYPE":"U","NORAD_CAT_ID":55046,"ELEMENT_SET_NO":999,"REV_AT_EPOCH":17664,"BSTAR":0.00042323634,"MEAN_MOTION_DOT":0.00013886,"MEAN_MOTION_DDOT":0},{"OBJECT_NAME":"STARLINK-35517","OBJECT_ID":"2025-245L","EPOCH":"2026-03-09T21:35:07.028160","MEAN_MOTION":15.30203063,"ECCENTRICITY":0.00011293,"INCLINATION":53.1572,"RA_OF_ASC_NODE":282.5658,"ARG_OF_PERICENTER":125.5948,"MEAN_ANOMALY":234.5158,"EPHEMERIS_TYPE":0,"CLASSIFICATION_TYPE":"U","NORAD_CAT_ID":66244,"ELEMENT_SET_NO":999,"REV_AT_EPOCH":2108,"BSTAR":0.00071963644,"MEAN_MOTION_DOT":0.00021017,"MEAN_MOTION_DDOT":0}]
